{
  "type": "FeatureCollection",
  "features": [
    {
      "type": "Feature",
      "properties": {
        "norad_id": 33924,
        "name": "COSMOS 2251 DEB",
        "group": "cosmos-2251-debris",
        "lat": 3.5100292040859467,
        "lon": -98.81987406531199,
        "alt_km": 956.3234448355624,
        "timestamp": "2025-12-18T23:35:49.456154+00:00",
        "meta_object_name": "COSMOS 2251 DEB",
        "meta_object_id": "1993-036ED",
        "meta_epoch": "2025-12-18T11:07:58.463040",
        "meta_mean_motion": 13.50233103,
        "meta_eccentricity": 0.04039248,
        "meta_inclination": 73.9135,
        "meta_ra_of_asc_node": 261.0004,
        "meta_arg_of_pericenter": 295.4455,
        "meta_mean_anomaly": 60.5372,
        "meta_ephemeris_type": 0,
        "meta_classification_type": "U",
        "meta_norad_cat_id": 33924,
        "meta_element_set_no": 999,
        "meta_rev_at_epoch": 82816,
        "meta_bstar": 0.00047612672,
        "meta_mean_motion_dot": 4.8e-06,
        "meta_mean_motion_ddot": 0,
        "tle_line1": "1 33924U 93036ED  25352.46387110  .00000480  00000+0  47613-3 0  9994",
        "tle_line2": "2 33924  73.9135 261.0004 0403924 295.4455  60.5372 13.50233103828169"
      },
      "geometry": {
        "type": "Point",
        "coordinates": [
          -98.81987406531199,
          3.5100292040859467
        ]
      }
    },
    {
      "type": "Feature",
      "properties": {
        "norad_id": 33928,
        "name": "COSMOS 2251 DEB",
        "group": "cosmos-2251-debris",
        "lat": -60.798120975116014,
        "lon": 9.754225260354772,
        "alt_km": 706.5788132998814,
        "timestamp": "2025-12-18T23:35:49.456165+00:00",
        "meta_object_name": "COSMOS 2251 DEB",
        "meta_object_id": "1993-036EH",
        "meta_epoch": "2025-12-18T13:56:31.189920",
        "meta_mean_motion": 14.47414804,
        "meta_eccentricity": 0.00617629,
        "meta_inclination": 73.9257,
        "meta_ra_of_asc_node": 41.5676,
        "meta_arg_of_pericenter": 334.4562,
        "meta_mean_anomaly": 25.3547,
        "meta_ephemeris_type": 0,
        "meta_classification_type": "U",
        "meta_norad_cat_id": 33928,
        "meta_element_set_no": 999,
        "meta_rev_at_epoch": 88729,
        "meta_bstar": 0.00018657064,
        "meta_mean_motion_dot": 6.71e-06,
        "meta_mean_motion_ddot": 0,
        "tle_line1": "1 33928U 93036EH  25352.58091655  .00000671  00000+0  18657-3 0  9995",
        "tle_line2": "2 33928  73.9257  41.5676 0061762 334.4562  25.3547 14.47414804887295"
      },
      "geometry": {
        "type": "Point",
        "coordinates": [
          9.754225260354772,
          -60.798120975116014
        ]
      }
    },
    {
      "type": "Feature",
      "properties": {
        "norad_id": 33932,
        "name": "COSMOS 2251 DEB",
        "group": "cosmos-2251-debris",
        "lat": -54.8407905925974,
        "lon": 148.3848822001735,
        "alt_km": 788.9108605157608,
        "timestamp": "2025-12-18T23:35:49.456176+00:00",
        "meta_object_name": "COSMOS 2251 DEB",
        "meta_object_id": "1993-036EM",
        "meta_epoch": "2025-12-18T07:28:26.861664",
        "meta_mean_motion": 14.38774162,
        "meta_eccentricity": 0.00356082,
        "meta_inclination": 74.034,
        "meta_ra_of_asc_node": 305.6411,
        "meta_arg_of_pericenter": 20.4583,
        "meta_mean_anomaly": 339.7988,
        "meta_ephemeris_type": 0,
        "meta_classification_type": "U",
        "meta_norad_cat_id": 33932,
        "meta_element_set_no": 999,
        "meta_rev_at_epoch": 88078,
        "meta_bstar": 0.00038453627,
        "meta_mean_motion_dot": 1.164e-05,
        "meta_mean_motion_ddot": 0,
        "tle_line1": "1 33932U 93036EM  25352.31142201  .00001164  00000+0  38454-3 0  9990",
        "tle_line2": "2 33932  74.0340 305.6411 0035608  20.4583 339.7988 14.38774162880785"
      },
      "geometry": {
        "type": "Point",
        "coordinates": [
          148.3848822001735,
          -54.8407905925974
        ]
      }
    },
    {
      "type": "Feature",
      "properties": {
        "norad_id": 33933,
        "name": "COSMOS 2251 DEB",
        "group": "cosmos-2251-debris",
        "lat": -31.139734611584327,
        "lon": 38.83394812749925,
        "alt_km": 783.3638943427659,
        "timestamp": "2025-12-18T23:35:49.456186+00:00",
        "meta_object_name": "COSMOS 2251 DEB",
        "meta_object_id": "1993-036EN",
        "meta_epoch": "2025-12-18T13:41:54.332736",
        "meta_mean_motion": 14.33497604,
        "meta_eccentricity": 0.0070859,
        "meta_inclination": 74.0892,
        "meta_ra_of_asc_node": 49.5093,
        "meta_arg_of_pericenter": 56.1705,
        "meta_mean_anomaly": 304.6165,
        "meta_ephemeris_type": 0,
        "meta_classification_type": "U",
        "meta_norad_cat_id": 33933,
        "meta_element_set_no": 999,
        "meta_rev_at_epoch": 87868,
        "meta_bstar": 0.00020543299,
        "meta_mean_motion_dot": 5.59e-06,
        "meta_mean_motion_ddot": 0,
        "tle_line1": "1 33933U 93036EN  25352.57076774  .00000559  00000+0  20543-3 0  9997",
        "tle_line2": "2 33933  74.0892  49.5093 0070859  56.1705 304.6165 14.33497604878689"
      },
      "geometry": {
        "type": "Point",
        "coordinates": [
          38.83394812749925,
          -31.139734611584327
        ]
      }
    },
    {
      "type": "Feature",
      "properties": {
        "norad_id": 33934,
        "name": "COSMOS 2251 DEB",
        "group": "cosmos-2251-debris",
        "lat": -55.56402750981087,
        "lon": 64.00364929391174,
        "alt_km": 702.2842071659861,
        "timestamp": "2025-12-18T23:35:49.456197+00:00",
        "meta_object_name": "COSMOS 2251 DEB",
        "meta_object_id": "1993-036EP",
        "meta_epoch": "2025-12-18T12:20:58.123968",
        "meta_mean_motion": 14.59156344,
        "meta_eccentricity": 0.00154643,
        "meta_inclination": 74.0385,
        "meta_ra_of_asc_node": 89.5688,
        "meta_arg_of_pericenter": 213.4929,
        "meta_mean_anomaly": 146.526,
        "meta_ephemeris_type": 0,
        "meta_classification_type": "U",
        "meta_norad_cat_id": 33934,
        "meta_element_set_no": 999,
        "meta_rev_at_epoch": 88823,
        "meta_bstar": 0.00069732596,
        "meta_mean_motion_dot": 3.263e-05,
        "meta_mean_motion_ddot": 0,
        "tle_line1": "1 33934U 93036EP  25352.51456162  .00003263  00000+0  69733-3 0  9994",
        "tle_line2": "2 33934  74.0385  89.5688 0015464 213.4929 146.5260 14.59156344888230"
      },
      "geometry": {
        "type": "Point",
        "coordinates": [
          64.00364929391174,
          -55.56402750981087
        ]
      }
    },
    {
      "type": "Feature",
      "properties": {
        "norad_id": 33936,
        "name": "COSMOS 2251 DEB",
        "group": "cosmos-2251-debris",
        "lat": -68.27284202820567,
        "lon": -108.46158250757777,
        "alt_km": 694.2226525583774,
        "timestamp": "2025-12-18T23:35:49.456207+00:00",
        "meta_object_name": "COSMOS 2251 DEB",
        "meta_object_id": "1993-036ER",
        "meta_epoch": "2025-12-18T12:34:08.659776",
        "meta_mean_motion": 14.60305921,
        "meta_eccentricity": 0.00271453,
        "meta_inclination": 74.0182,
        "meta_ra_of_asc_node": 26.4295,
        "meta_arg_of_pericenter": 180.5858,
        "meta_mean_anomaly": 179.5281,
        "meta_ephemeris_type": 0,
        "meta_classification_type": "U",
        "meta_norad_cat_id": 33936,
        "meta_element_set_no": 999,
        "meta_rev_at_epoch": 88974,
        "meta_bstar": 0.00046410348,
        "meta_mean_motion_dot": 2.224e-05,
        "meta_mean_motion_ddot": 0,
        "tle_line1": "1 33936U 93036ER  25352.52371134  .00002224  00000+0  46410-3 0  9995",
        "tle_line2": "2 33936  74.0182  26.4295 0027145 180.5858 179.5281 14.60305921889740"
      },
      "geometry": {
        "type": "Point",
        "coordinates": [
          -108.46158250757777,
          -68.27284202820567
        ]
      }
    },
    {
      "type": "Feature",
      "properties": {
        "norad_id": 33938,
        "name": "COSMOS 2251 DEB",
        "group": "cosmos-2251-debris",
        "lat": 14.0248827647589,
        "lon": 11.421479061307242,
        "alt_km": 741.135456081156,
        "timestamp": "2025-12-18T23:35:49.456218+00:00",
        "meta_object_name": "COSMOS 2251 DEB",
        "meta_object_id": "1993-036ET",
        "meta_epoch": "2025-12-18T14:49:01.966368",
        "meta_mean_motion": 14.46810366,
        "meta_eccentricity": 0.00168332,
        "meta_inclination": 74.0438,
        "meta_ra_of_asc_node": 196.2025,
        "meta_arg_of_pericenter": 277.8238,
        "meta_mean_anomaly": 143.0017,
        "meta_ephemeris_type": 0,
        "meta_classification_type": "U",
        "meta_norad_cat_id": 33938,
        "meta_element_set_no": 999,
        "meta_rev_at_epoch": 88485,
        "meta_bstar": 0.00032195316,
        "meta_mean_motion_dot": 1.141e-05,
        "meta_mean_motion_ddot": 0,
        "tle_line1": "1 33938U 93036ET  25352.61738387  .00001141  00000+0  32195-3 0  9996",
        "tle_line2": "2 33938  74.0438 196.2025 0016833 277.8238 143.0017 14.46810366884855"
      },
      "geometry": {
        "type": "Point",
        "coordinates": [
          11.421479061307242,
          14.0248827647589
        ]
      }
    }
  ]
}